NORAD_CAT_ID,OBJECT_NAME,OBJECT_TYPE,EPOCH,MEAN_MOTION,ECCENTRICITY,INCLINATION,RA_OF_ASC_NODE,ARG_OF_PERICENTER,MEAN_ANOMALY,BSTAR,MEAN_MOTION_DOT,MEAN_MOTION_DDOT,TLE_LINE0,TLE_LINE1,TLE_LINE2,SEMIMAJOR_AXIS,PERIOD,APOGEE,PERIGEE,DECAYED
54784.0,STARLINK-5442,PAYLOAD,2024-05-12 18:52:08,15.08786969,0.0001471,53.2152,153.2389,114.1514,245.9632,0.00014174,1.965e-05,0.0,0 STARLINK-5442,1 54784U 22175AC  24133.78621342  .00001965  00000-0  14174-3 0  9992,2 54784  53.2152 153.2389 0001471 114.1514 245.9632 15.08786969 77238,6918.042,95.441,540.925,538.89,0.0
54784.0,STARLINK-5442,PAYLOAD,2024-05-13 07:35:14,15.08820984,0.0001618,53.2154,150.8579,117.8011,242.3145,0.001389,0.00021876,0.0,0 STARLINK-5442,1 54784U 22175AC  24134.31614114  .00021876  00000-0  13890-2 0  9997,2 54784  53.2154 150.8579 0001618 117.8011 242.3145 15.08820984 77314,6917.939,95.439,540.923,538.684,0.0
54784.0,STARLINK-5442,PAYLOAD,2024-05-14 05:50:38,15.0884899,0.0001407,53.2152,146.6944,121.342,238.771,0.00070946,0.00011024,0.0,0 STARLINK-5442,1 54784U 22175AC  24135.24349758  .00011024  00000-0  70946-3 0  9999,2 54784  53.2152 146.6944 0001407 121.3420 238.7710 15.08848990 77450,6917.853,95.437,540.691,538.745,0.0
54784.0,STARLINK-5442,PAYLOAD,2024-05-15 07:16:47,15.08865081,0.0001468,53.2155,141.9372,122.5752,237.5382,0.00048448,7.436e-05,0.0,0 STARLINK-5442,1 54784U 22175AC  24136.30332388  .00007436  00000-0  48448-3 0  9992,2 54784  53.2155 141.9372 0001468 122.5752 237.5382 15.08865081 77614,6917.804,95.436,540.684,538.653,0.0
54784.0,STARLINK-5442,PAYLOAD,2024-05-16 05:32:10,15.08845503,0.0001497,53.2159,137.7739,123.2484,236.8652,-0.00015874,-2.814e-05,0.0,0 STARLINK-5442,1 54784U 22175AC  24137.23067888 -.00002814  00000-0 -15874-3 0  9999,2 54784  53.2159 137.7739 0001497 123.2484 236.8652 15.08845503 77754,6917.864,95.437,540.764,538.693,0.0
54784.0,STARLINK-5442,PAYLOAD,2024-05-16 07:07:33,15.08844077,0.0001295,53.2156,137.4763,116.2334,243.8791,-0.00015418,-2.741e-05,0.0,0 STARLINK-5442,1 54784U 22175AC  24137.29691937 -.00002741  00000-0 -15418-3 0  9996,2 54784  53.2156 137.4763 0001295 116.2334 243.8791 15.08844077 79925,6917.868,95.437,540.629,538.837,0.0
54784.0,STARLINK-5442,PAYLOAD,2024-05-16 16:39:52,15.08853554,0.000126,53.2156,135.6913,113.0268,247.0857,0.00018544,2.666e-05,0.0,0 STARLINK-5442,1 54784U 22175AC  24137.69435689  .00002666  00000-0  18544-3 0  9997,2 54784  53.2156 135.6913 0001260 113.0268 247.0857 15.08853554 79980,6917.839,95.437,540.576,538.832,0.0
54784.0,STARLINK-5442,PAYLOAD,2024-05-17 05:22:57,15.08841379,0.0001593,53.2171,133.3148,118.1442,241.9711,0.00023899,3.518e-05,0.0,0 STARLINK-5442,1 54784U 22175AC  24138.22428083  .00003518  00000-0  23899-3 0  9993,2 54784  53.2171 133.3148 0001593 118.1442 241.9711 15.08841379 80066,6917.876,95.437,540.843,538.639,0.0
54784.0,STARLINK-5442,PAYLOAD,2024-05-17 16:30:39,15.08848903,0.0001495,53.2172,131.2317,105.9397,254.176,0.00029337,4.385e-05,0.0,0 STARLINK-5442,1 54784U 22175AC  24138.68795817  .00004385  00000-0  29337-3 0  9991,2 54784  53.2172 131.2317 0001495 105.9397 254.1760 15.08848903 77972,6917.853,95.437,540.752,538.684,0.0
54784.0,STARLINK-5442,PAYLOAD,2024-05-17 22:52:12,15.08844381,0.0001717,53.216,130.0418,98.8704,261.2483,0.00023366,3.433e-05,0.0,0 STARLINK-5442,1 54784U 22175AC  24138.95292062  .00003433  00000-0  23366-3 0  9994,2 54784  53.2160 130.0418 0001717  98.8704 261.2483 15.08844381 80170,6917.867,95.437,540.92,538.544,0.0
54784.0,STARLINK-5442,PAYLOAD,2024-05-18 05:13:45,15.08837877,0.0001817,53.2188,128.8532,100.0143,260.1055,4.9573e-05,5.01e-06,0.0,0 STARLINK-5442,1 54784U 22175AC  24139.21788315  .00000501  00000-0  49573-4 0  9997,2 54784  53.2188 128.8532 0001817 100.0143 260.1055 15.08837877 78055,6917.887,95.438,541.009,538.495,0.0
54784.0,STARLINK-5442,PAYLOAD,2024-05-18 08:24:31,15.08842454,0.0001378,53.2161,128.2574,102.5668,257.5478,0.00015763,2.222e-05,0.0,0 STARLINK-5442,1 54784U 22175AC  24139.35036060  .00002222  00000-0  15763-3 0  9990,2 54784  53.2161 128.2574 0001378 102.5668 257.5478 15.08842454 80236,6917.873,95.437,540.691,538.785,0.0
54784.0,STARLINK-5442,PAYLOAD,2024-05-18 16:21:26,15.08851496,0.0001438,53.2166,126.7693,91.3826,268.733,0.00029516,4.414e-05,0.0,0 STARLINK-5442,1 54784U 22175AC  24139.68155700  .00004414  00000-0  29516-3 0  9995,2 54784  53.2166 126.7693 0001438  91.3826 268.7330 15.08851496 78126,6917.845,95.437,540.705,538.715,0.0
54784.0,STARLINK-5442,PAYLOAD,2024-05-19 05:04:32,15.08830218,0.0001054,53.2159,124.3912,102.0133,258.0977,-0.00012512,-2.278e-05,0.0,0 STARLINK-5442,1 54784U 22175AC  24140.21148445 -.00002278  00000-0 -12512-3 0  9990,2 54784  53.2159 124.3912 0001054 102.0133 258.0977 15.08830218 78208,6917.91,95.438,540.504,539.046,0.0
54784.0,STARLINK-5442,PAYLOAD,2024-05-19 06:39:55,15.08831968,0.0001181,53.2141,124.0948,97.8927,262.2199,-1.6487e-05,-5.5e-06,0.0,0 STARLINK-5442,1 54784U 22175AC  24140.27772385 -.00000550  00000-0 -16487-4 0  9999,2 54784  53.2141 124.0948 0001181  97.8927 262.2199 15.08831968 80375,6917.905,95.438,540.587,538.953,0.0
54784.0,STARLINK-5442,PAYLOAD,2024-05-20 04:55:19,15.08847198,0.0001189,53.2144,119.9304,98.4153,261.6974,0.00069962,0.00010866,0.0,0 STARLINK-5442,1 54784U 22175AC  24141.20508507  .00010866  00000-0  69962-3 0  9990,2 54784  53.2144 119.9304 0001189  98.4153 261.6974 15.08847198 78354,6917.858,95.437,540.546,538.901,0.0
54784.0,STARLINK-5442,PAYLOAD,2024-05-21 04:46:06,15.08842924,0.0001205,53.2152,115.469,100.107,260.0058,0.00015131,2.121e-05,0.0,0 STARLINK-5442,1 54784U 22175AC  24142.19868384  .00002121  00000-0  15131-3 0  9995,2 54784  53.2152 115.4690 0001205 100.1070 260.0058 15.08842924 78505,6917.871,95.437,540.57,538.903,0.0
54784.0,STARLINK-5442,PAYLOAD,2024-05-22 03:01:30,15.08842144,0.0001226,53.2162,111.306,92.6339,267.4794,5.1086e-05,5.25e-06,0.0,0 STARLINK-5442,1 54784U 22175AC  24143.12604486  .00000525  00000-0  51086-4 0  9996,2 54784  53.2162 111.3060 0001226  92.6339 267.4794 15.08842144 78645,6917.874,95.437,540.587,538.891,0.0
54784.0,STARLINK-5442,PAYLOAD,2024-05-22 22:06:08,15.08839268,0.0001233,53.2165,107.7383,84.4776,275.6357,0.00012309,1.672e-05,0.0,0 STARLINK-5442,1 54784U 22175AC  24143.92092652  .00001672  00000-0  12309-3 0  9998,2 54784  53.2165 107.7383 0001233  84.4776 275.6357 15.08839268 80920,6917.883,95.438,540.601,538.895,0.0
54784.0,STARLINK-5442,PAYLOAD,2024-05-23 02:52:17,15.08836483,0.0001251,53.2161,106.8448,81.5417,278.5717,6.0011e-05,6.67e-06,0.0,0 STARLINK-5442,1 54784U 22175AC  24144.11964805  .00000667  00000-0  60011-4 0  9995,2 54784  53.2161 106.8448 0001251  81.5417 278.5717 15.08836483 78798,6917.891,95.438,540.622,538.891,0.0
54784.0,STARLINK-5442,PAYLOAD,2024-05-24 04:18:27,15.08840656,0.0001384,53.2169,102.0817,85.3774,274.7377,0.00010809,1.433e-05,0.0,0 STARLINK-5442,1 54784U 22175AC  24145.17948704  .00001433  00000-0  10809-3 0  9993,2 54784  53.2169 102.0817 0001384  85.3774 274.7377 15.08840656 78954,6917.878,95.438,540.701,538.786,0.0
54784.0,STARLINK-5442,PAYLOAD,2024-05-24 07:29:13,15.08841053,0.0001426,53.2176,101.4924,93.2425,266.873,0.0001012,1.323e-05,0.0,0 STARLINK-5442,1 54784U 22175AC  24145.31196718  .00001323  00000-0  10120-3 0  9993,2 54784  53.2176 101.4924 0001426  93.2425 266.8730 15.08841053 81133,6917.877,95.437,540.729,538.756,0.0
54784.0,STARLINK-5442,PAYLOAD,2024-05-24 21:47:42,15.08830528,0.0001627,53.2179,98.8144,99.6552,260.4624,6.1936e-05,6.98e-06,0.0,0 STARLINK-5442,1 54784U 22175AC  24145.90813642  .00000698  00000-0  61936-4 0  9996,2 54784  53.2179  98.8144 0001627  99.6552 260.4624 15.08830528 79069,6917.909,95.438,540.9,538.649,0.0
54784.0,STARLINK-5442,PAYLOAD,2024-05-25 13:41:34,15.08835169,0.000136,53.2179,95.8431,93.1397,266.9751,5.5758e-05,5.99e-06,0.0,0 STARLINK-5442,1 54784U 22175AC  24146.57053618  .00000599  00000-0  55758-4 0  9994,2 54784  53.2179  95.8431 0001360  93.1397 266.9751 15.08835169 81325,6917.895,95.438,540.701,538.819,0.0
54784.0,STARLINK-5442,PAYLOAD,2024-05-26 04:00:02,15.0885619,0.0001539,53.2178,93.1683,104.2078,255.9086,-0.00012394,-2.261e-05,0.0,0 STARLINK-5442,1 54784U 22175AC  24147.16669008 -.00002261  00000-0 -12394-3 0  9994,2 54784  53.2178  93.1683 0001539 104.2078 255.9086 15.08856190 79257,6917.831,95.437,540.761,538.631,0.0
54784.0,STARLINK-5442,PAYLOAD,2024-05-26 05:35:25,15.08847035,0.0001518,53.2178,92.8698,109.0227,251.093,5.0397e-05,5.14e-06,0.0,0 STARLINK-5442,1 54784U 22175AC  24147.23293055  .00000514  00000-0  50397-4 0  9990,2 54784  53.2178  92.8698 0001518 109.0227 251.0930 15.08847035 81420,6917.859,95.437,540.774,538.674,0.0
54784.0,STARLINK-5442,PAYLOAD,2024-05-27 03:50:49,15.08835391,0.0001432,53.2182,88.7112,94.5282,265.5874,0.00012744,1.741e-05,0.0,0 STARLINK-5442,1 54784U 22175AC  24148.16029857  .00001741  00000-0  12744-3 0  9996,2 54784  53.2182  88.7112 0001432  94.5282 265.5874 15.08835391 79408,6917.894,95.438,540.75,538.769,0.0
54784.0,STARLINK-5442,PAYLOAD,2024-05-27 13:23:08,15.08843848,0.0001436,53.2183,86.9263,86.2276,273.8881,0.0001063,1.404e-05,0.0,0 STARLINK-5442,1 54784U 22175AC  24148.55773351  .00001404  00000-0  10630-3 0  9992,2 54784  53.2183  86.9263 0001436  86.2276 273.8881 15.08843848 81624,6917.869,95.437,540.727,538.74,0.0
54784.0,STARLINK-5442,PAYLOAD,2024-05-27 19:44:41,15.08842677,0.0001398,53.218,85.7334,105.971,254.1436,1.3951e-05,-6.6e-07,0.0,0 STARLINK-5442,1 54784U 22175AC  24148.82269696 -.00000066  00000-0  13951-4 0  9998,2 54784  53.2180  85.7334 0001398 105.9710 254.1436 15.08842677 81667,6917.872,95.437,540.704,538.77,0.0
54784.0,STARLINK-5442,PAYLOAD,2024-05-28 13:13:55,15.08843022,0.0001358,53.2179,82.4623,109.8832,250.2306,1.7515e-05,-9e-08,0.0,0 STARLINK-5442,1 54784U 22175AC  24149.55133434 -.00000009  00000-0  17515-4 0  9996,2 54784  53.2179  82.4623 0001358 109.8832 250.2306 15.08843022 81774,6917.871,95.437,540.676,538.797,0.0
